CCSDS_OMM_VERS = 2.0
CREATION_DATE  = 
ORIGINATOR     = 

OBJECT_NAME    = ALOS (DAICHI)
OBJECT_ID      = 2006-002A
CENTER_NAME    = EARTH
REF_FRAME      = TEME
TIME_SYSTEM    = UTC
MEAN_ELEMENT_THEORY = SGP/SGP4

EPOCH          = 2026-02-22T19:09:11.887200
MEAN_MOTION    = 14.69755868
ECCENTRICITY   = .0001532
INCLINATION    = 98.1193
RA_OF_ASC_NODE = 9.8314
ARG_OF_PERICENTER = 54.3173
MEAN_ANOMALY   = 305.8175

EPHEMERIS_TYPE = 0
CLASSIFICATION_TYPE = U
NORAD_CAT_ID   = 28931
ELEMENT_SET_NO = 999
REV_AT_EPOCH   = 7129
BSTAR          = .24581E-3
MEAN_MOTION_DOT = .1416E-4
MEAN_MOTION_DDOT = 0

CCSDS_OMM_VERS = 2.0
CREATION_DATE  = 
ORIGINATOR     = 

OBJECT_NAME    = H-2A R/B
OBJECT_ID      = 2006-002B
CENTER_NAME    = EARTH
REF_FRAME      = TEME
TIME_SYSTEM    = UTC
MEAN_ELEMENT_THEORY = SGP/SGP4

EPOCH          = 2026-02-22T19:50:11.575104
MEAN_MOTION    = 15.16075891
ECCENTRICITY   = .0052073
INCLINATION    = 98.2386
RA_OF_ASC_NODE = 199.5791
ARG_OF_PERICENTER = 292.2611
MEAN_ANOMALY   = 67.3102

EPHEMERIS_TYPE = 0
CLASSIFICATION_TYPE = U
NORAD_CAT_ID   = 28932
ELEMENT_SET_NO = 999
REV_AT_EPOCH   = 9218
BSTAR          = .50637E-3
MEAN_MOTION_DOT = .10012E-3
MEAN_MOTION_DDOT = 0

CCSDS_OMM_VERS = 2.0
CREATION_DATE  = 
ORIGINATOR     = 

OBJECT_NAME    = RESURS-DK 1
OBJECT_ID      = 2006-021A
CENTER_NAME    = EARTH
REF_FRAME      = TEME
TIME_SYSTEM    = UTC
MEAN_ELEMENT_THEORY = SGP/SGP4

EPOCH          = 2026-02-22T17:21:21.038688
MEAN_MOTION    = 15.12643546
ECCENTRICITY   = .0002981
INCLINATION    = 69.9315
RA_OF_ASC_NODE = 275.7385
ARG_OF_PERICENTER = 178.3269
MEAN_ANOMALY   = 181.7907

EPHEMERIS_TYPE = 0
CLASSIFICATION_TYPE = U
NORAD_CAT_ID   = 29228
ELEMENT_SET_NO = 999
REV_AT_EPOCH   = 8526
BSTAR          = .12988E-3
MEAN_MOTION_DOT = .2168E-4
MEAN_MOTION_DDOT = 0

CCSDS_OMM_VERS = 2.0
CREATION_DATE  = 
ORIGINATOR     = 

OBJECT_NAME    = CZ-4B R/B
OBJECT_ID      = 2006-046C
CENTER_NAME    = EARTH
REF_FRAME      = TEME
TIME_SYSTEM    = UTC
MEAN_ELEMENT_THEORY = SGP/SGP4

EPOCH          = 2026-02-22T19:58:10.473024
MEAN_MOTION    = 15.16732428
ECCENTRICITY   = .0032321
INCLINATION    = 97.5623
RA_OF_ASC_NODE = 98.7801
ARG_OF_PERICENTER = 321.2230
MEAN_ANOMALY   = 38.6683

EPHEMERIS_TYPE = 0
CLASSIFICATION_TYPE = U
NORAD_CAT_ID   = 29507
ELEMENT_SET_NO = 999
REV_AT_EPOCH   = 5779
BSTAR          = .2672E-3
MEAN_MOTION_DOT = .5239E-4
MEAN_MOTION_DDOT = 0

CCSDS_OMM_VERS = 2.0
CREATION_DATE  = 
ORIGINATOR     = 

OBJECT_NAME    = CZ-2C R/B
OBJECT_ID      = 2007-010B
CENTER_NAME    = EARTH
REF_FRAME      = TEME
TIME_SYSTEM    = UTC
MEAN_ELEMENT_THEORY = SGP/SGP4

EPOCH          = 2026-02-22T07:08:06.292320
MEAN_MOTION    = 14.20240368
ECCENTRICITY   = .0058462
INCLINATION    = 98.3973
RA_OF_ASC_NODE = 167.3484
ARG_OF_PERICENTER = 340.0044
MEAN_ANOMALY   = 19.8843

EPHEMERIS_TYPE = 0
CLASSIFICATION_TYPE = U
NORAD_CAT_ID   = 31114
ELEMENT_SET_NO = 999
REV_AT_EPOCH   = 97753
BSTAR          = .75761E-4
MEAN_MOTION_DOT = .123E-5
MEAN_MOTION_DDOT = 0

CCSDS_OMM_VERS = 2.0
CREATION_DATE  = 
ORIGINATOR     = 

OBJECT_NAME    = COSMO-SKYMED 1
OBJECT_ID      = 2007-023A
CENTER_NAME    = EARTH
REF_FRAME      = TEME
TIME_SYSTEM    = UTC
MEAN_ELEMENT_THEORY = SGP/SGP4

EPOCH          = 2026-02-22T19:41:20.817312
MEAN_MOTION    = 14.96413260
ECCENTRICITY   = .0001458
INCLINATION    = 97.8879
RA_OF_ASC_NODE = 244.7343
ARG_OF_PERICENTER = 86.0187
MEAN_ANOMALY   = 274.1200

EPHEMERIS_TYPE = 0
CLASSIFICATION_TYPE = U
NORAD_CAT_ID   = 31598
ELEMENT_SET_NO = 999
REV_AT_EPOCH   = 1268
BSTAR          = .34807E-3
MEAN_MOTION_DOT = .3886E-4
MEAN_MOTION_DDOT = 0

CCSDS_OMM_VERS = 2.0
CREATION_DATE  = 
ORIGINATOR     = 

OBJECT_NAME    = COSMOS 2428
OBJECT_ID      = 2007-029A
CENTER_NAME    = EARTH
REF_FRAME      = TEME
TIME_SYSTEM    = UTC
MEAN_ELEMENT_THEORY = SGP/SGP4

EPOCH          = 2026-02-22T17:43:29.664192
MEAN_MOTION    = 14.12941141
ECCENTRICITY   = .0008253
INCLINATION    = 70.9402
RA_OF_ASC_NODE = 234.7262
ARG_OF_PERICENTER = 292.9745
MEAN_ANOMALY   = 67.0505

EPHEMERIS_TYPE = 0
CLASSIFICATION_TYPE = U
NORAD_CAT_ID   = 31792
ELEMENT_SET_NO = 999
REV_AT_EPOCH   = 96198
BSTAR          = .11524E-3
MEAN_MOTION_DOT = .167E-5
MEAN_MOTION_DDOT = 0

CCSDS_OMM_VERS = 2.0
CREATION_DATE  = 
ORIGINATOR     = 

OBJECT_NAME    = SL-16 R/B
OBJECT_ID      = 2007-029B
CENTER_NAME    = EARTH
REF_FRAME      = TEME
TIME_SYSTEM    = UTC
MEAN_ELEMENT_THEORY = SGP/SGP4

EPOCH          = 2026-02-22T16:59:07.435680
MEAN_MOTION    = 14.14836562
ECCENTRICITY   = .000247
INCLINATION    = 70.9752
RA_OF_ASC_NODE = 203.8753
ARG_OF_PERICENTER = 281.5422
MEAN_ANOMALY   = 94.7102

EPHEMERIS_TYPE = 0
CLASSIFICATION_TYPE = U
NORAD_CAT_ID   = 31793
ELEMENT_SET_NO = 999
REV_AT_EPOCH   = 96325
BSTAR          = -.28301E-4
MEAN_MOTION_DOT = -.103E-5
MEAN_MOTION_DDOT = 0

CCSDS_OMM_VERS = 2.0
CREATION_DATE  = 
ORIGINATOR     = 

OBJECT_NAME    = KORONAS-FOTON
OBJECT_ID      = 2009-003A
CENTER_NAME    = EARTH
REF_FRAME      = TEME
TIME_SYSTEM    = UTC
MEAN_ELEMENT_THEORY = SGP/SGP4

EPOCH          = 2026-02-22T17:16:47.188704
MEAN_MOTION    = 15.42910189
ECCENTRICITY   = .0009905
INCLINATION    = 82.4297
RA_OF_ASC_NODE = 291.4374
ARG_OF_PERICENTER = 203.0649
MEAN_ANOMALY   = 157.0154

EPHEMERIS_TYPE = 0
CLASSIFICATION_TYPE = U
NORAD_CAT_ID   = 33504
ELEMENT_SET_NO = 999
REV_AT_EPOCH   = 94343
BSTAR          = .33132E-3
MEAN_MOTION_DOT = .14622E-3
MEAN_MOTION_DDOT = 0

CCSDS_OMM_VERS = 2.0
CREATION_DATE  = 
ORIGINATOR     = 

OBJECT_NAME    = CZ-2C R/B
OBJECT_ID      = 2011-030B
CENTER_NAME    = EARTH
REF_FRAME      = TEME
TIME_SYSTEM    = UTC
MEAN_ELEMENT_THEORY = SGP/SGP4

EPOCH          = 2026-02-22T15:18:35.180352
MEAN_MOTION    = 14.81156321
ECCENTRICITY   = .0053737
INCLINATION    = 97.8519
RA_OF_ASC_NODE = 11.2061
ARG_OF_PERICENTER = 40.5618
MEAN_ANOMALY   = 143.7622

EPHEMERIS_TYPE = 0
CLASSIFICATION_TYPE = U
NORAD_CAT_ID   = 37731
ELEMENT_SET_NO = 999
REV_AT_EPOCH   = 78786
BSTAR          = .21511E-3
MEAN_MOTION_DOT = .166E-4
MEAN_MOTION_DDOT = 0

CCSDS_OMM_VERS = 2.0
CREATION_DATE  = 
ORIGINATOR     = 

OBJECT_NAME    = H-2A R/B
OBJECT_ID      = 2012-025E
CENTER_NAME    = EARTH
REF_FRAME      = TEME
TIME_SYSTEM    = UTC
MEAN_ELEMENT_THEORY = SGP/SGP4

EPOCH          = 2026-02-22T20:54:18.472896
MEAN_MOTION    = 14.95026742
ECCENTRICITY   = .0044951
INCLINATION    = 98.4712
RA_OF_ASC_NODE = 19.7366
ARG_OF_PERICENTER = 3.3094
MEAN_ANOMALY   = 356.8413

EPHEMERIS_TYPE = 0
CLASSIFICATION_TYPE = U
NORAD_CAT_ID   = 38341
ELEMENT_SET_NO = 999
REV_AT_EPOCH   = 74600
BSTAR          = .33387E-3
MEAN_MOTION_DOT = .3657E-4
MEAN_MOTION_DDOT = 0

CCSDS_OMM_VERS = 2.0
CREATION_DATE  = 
ORIGINATOR     = 

OBJECT_NAME    = SHIJIAN-16 (SJ-16)
OBJECT_ID      = 2013-057A
CENTER_NAME    = EARTH
REF_FRAME      = TEME
TIME_SYSTEM    = UTC
MEAN_ELEMENT_THEORY = SGP/SGP4

EPOCH          = 2026-02-22T21:07:17.609088
MEAN_MOTION    = 14.92275590
ECCENTRICITY   = .0016139
INCLINATION    = 74.9713
RA_OF_ASC_NODE = 213.1212
ARG_OF_PERICENTER = 150.3688
MEAN_ANOMALY   = 209.8418

EPHEMERIS_TYPE = 0
CLASSIFICATION_TYPE = U
NORAD_CAT_ID   = 39358
ELEMENT_SET_NO = 999
REV_AT_EPOCH   = 66929
BSTAR          = .13817E-3
MEAN_MOTION_DOT = .1385E-4
MEAN_MOTION_DDOT = 0

