ALOS (DAICHI)           
1 28931U 06002A   26053.79805425  .00001416  00000+0  24581-3 0  9991
2 28931  98.1193   9.8314 0001532  54.3173 305.8175 14.69755868 71292
H-2A R/B                
1 28932U 06002B   26053.82652286  .00010012  00000+0  50637-3 0  9994
2 28932  98.2386 199.5791 0052073 292.2611  67.3102 15.16075891 92185
RESURS-DK 1             
1 29228U 06021A   26053.72316017  .00002168  00000+0  12988-3 0  9992
2 29228  69.9315 275.7385 0002981 178.3269 181.7907 15.12643546 85262
CZ-4B R/B               
1 29507U 06046C   26053.83206566  .00005239  00000+0  26720-3 0  9999
2 29507  97.5623  98.7801 0032321 321.2230  38.6683 15.16732428 57795
CZ-2C R/B               
1 31114U 07010B   26053.29729505  .00000123  00000+0  75761-4 0  9998
2 31114  98.3973 167.3484 0058462 340.0044  19.8843 14.20240368977538
COSMO-SKYMED 1          
1 31598U 07023A   26053.82037983  .00003886  00000+0  34807-3 0  9993
2 31598  97.8879 244.7343 0001458  86.0187 274.1200 14.96413260 12680
COSMOS 2428             
1 31792U 07029A   26053.73853778  .00000167  00000+0  11524-3 0  9993
2 31792  70.9402 234.7262 0008253 292.9745  67.0505 14.12941141961982
SL-16 R/B               
1 31793U 07029B   26053.70772495 -.00000103  00000+0 -28301-4 0  9991
2 31793  70.9752 203.8753 0002470 281.5422  94.7102 14.14836562963258
KORONAS-FOTON           
1 33504U 09003A   26053.71999061  .00014622  00000+0  33132-3 0  9994
2 33504  82.4297 291.4374 0009905 203.0649 157.0154 15.42910189943432
CZ-2C R/B               
1 37731U 11030B   26053.63790718  .00001660  00000+0  21511-3 0  9998
2 37731  97.8519  11.2061 0053737  40.5618 143.7622 14.81156321787865
H-2A R/B                
1 38341U 12025E   26053.87104714  .00003657  00000+0  33387-3 0  9994
2 38341  98.4712  19.7366 0044951   3.3094 356.8413 14.95026742746003
SHIJIAN-16 (SJ-16)      
1 39358U 13057A   26053.88006492  .00001385  00000+0  13817-3 0  9996
2 39358  74.9713 213.1212 0016139 150.3688 209.8418 14.92275590669292
